0 SYRACUSE 3B
1 29273U 06033B   13280.11419177 -.00000051  00000-0  10000-3 0  2297
2 29273 000.0367 034.8548 0003927 153.7875 223.2375 01.00273673 26269
0 SYRACUSE 3B
1 29273U 06033B   13281.07417528 -.00000054  00000-0  10000-3 0  2306
2 29273 000.0267 027.0940 0003339 166.5160 204.7874 01.00270873 26272
0 SYRACUSE 3B
1 29273U 06033B   13282.15536331 -.00000057  00000-0  10000-3 0  2314
2 29273 000.0278 027.7635 0003327 165.8329 235.0895 01.00270918 26289
0 SYRACUSE 3B
1 29273U 06033B   13283.20976925 -.00000060  00000-0  10000-3 0  2323
2 29273 000.0285 028.3694 0003347 165.5302 255.4069 01.00270953 26298
0 SYRACUSE 3B
1 29273U 06033B   13285.09288134 -.00000066  00000-0  10000-3 0  2337
2 29273 000.0307 030.1089 0003358 164.1912 214.7756 01.00271084 26316
0 SYRACUSE 3B
1 29273U 06033B   13286.16071493 -.00000068  00000-0  10000-3 0  2347
2 29273 000.0319 030.9653 0003373 163.6003 239.9791 01.00271166 26326
0 SYRACUSE 3B
1 29273U 06033B   13288.11362778 -.00000069  00000-0  10000-3 0  2355
2 29273 000.0344 034.5133 0003475 160.8667 224.1359 01.00271430 26347
0 SYRACUSE 3B
1 29273U 06033B   13290.31211738 -.00000066  00000-0  10000-3 0  2367
2 29273 000.0374 034.4838 0003476 160.9402 297.7284 01.00273034 26367
0 SYRACUSE 3B
1 29273U 06033B   13291.06808313 -.00000064  00000-0  10000-3 0  2370
2 29273 000.0218 124.9380 0004833 079.2404 201.8736 01.00272514 26374
0 SYRACUSE 3B
1 29273U 06033B   13292.26036137 -.00000062  00000-0  10000-3 0  2389
2 29273 000.0233 128.8748 0004783 077.1622 270.4104 01.00272594 26385
